IRIDIUM 119             
1 42959U 17061E   25099.79443089  .00000046  00000+0  95365-5 0  9995
2 42959  86.4030 206.3216 0002070  91.1029 269.0404 14.34216860392692
IRIDIUM 107             
1 42960U 17061F   25099.81345672  .00000661  00000+0  22905-3 0  9990
2 42960  86.4033 206.3324 0001659  95.1143 265.0242 14.34218922392709
IRIDIUM 132             
1 42961U 17061G   25099.81980062  .00000059  00000+0  13964-4 0  9996
2 42961  86.4032 206.3122 0001950  96.2505 263.8913 14.34217348392705
IRIDIUM 136             
1 42962U 17061H   25099.78174342  .00000038  00000+0  63725-5 0  9997
2 42962  86.4032 206.3328 0002003  91.2985 268.8440 14.34211849392712
IRIDIUM 139             
1 42963U 17061J   25099.78808684  .00000062  00000+0  15127-4 0  9990
2 42963  86.4032 206.3848 0001915  97.4000 262.7414 14.34215688392727
IRIDIUM 125             
1 42964U 17061K   25099.84517120  .00000147  00000+0  45318-4 0  9999
2 42964  86.4035 206.4140 0001899  82.7510 277.3901 14.34217409392749
IRIDIUM 135             
1 43070U 17083A   25099.81929748 -.00000034  00000+0 -19048-4 0  9990
2 43070  86.3978 143.1964 0002402  97.4019 262.7449 14.34217248382039
IRIDIUM 138             
1 43071U 17083B   25099.84466818 -.00000014  00000+0 -12158-4 0  9991
2 43071  86.3966 142.8657 0002454  81.4159 278.7315 14.34217097382027
